[{"OBJECT_NAME":"STARLINK-32767","OBJECT_ID":"2025-008Q","EPOCH":"2026-03-09T00:28:26.906304","MEAN_MOTION":15.27585145,"ECCENTRICITY":0.00012508,"INCLINATION":43.0024,"RA_OF_ASC_NODE":281.5558,"ARG_OF_PERICENTER":271.8016,"MEAN_ANOMALY":88.2692,"EPHEMERIS_TYPE":0,"CLASSIFICATION_TYPE":"U","NORAD_CAT_ID":62601,"ELEMENT_SET_NO":999,"REV_AT_EPOCH":6552,"BSTAR":0.0010823646,"MEAN_MOTION_DOT":0.00029647,"MEAN_MOTION_DDOT":0},{"OBJECT_NAME":"SIMSAT 1","OBJECT_ID":"2000-026A","EPOCH":"2026-03-09T17:22:54.646176","MEAN_MOTION":15.27666538,"ECCENTRICITY":0.00084816,"INCLINATION":86.3501,"RA_OF_ASC_NODE":180.5413,"ARG_OF_PERICENTER":14.8337,"MEAN_ANOMALY":345.3157,"EPHEMERIS_TYPE":0,"CLASSIFICATION_TYPE":"U","NORAD_CAT_ID":26365,"ELEMENT_SET_NO":999,"REV_AT_EPOCH":42720,"BSTAR":0.00013499313,"MEAN_MOTION_DOT":3.69e-5,"MEAN_MOTION_DDOT":0}]
